[
    {
        "Altitude(m)": 710830.5537975273,
        "Argument of Periapsis(deg)": 0.007973084830638947,
        "Eccentricity": 0.0,
        "Inclination(deg)": 45.0,
        "Latitude(deg)": -27.697064905718047,
        "Longitude(deg)": 170.94260663324246,
        "Mean Anomaly(deg)": 220.8005516532366,
        "RAAN(deg)": 59.99247364097925,
        "Satellite Name": "Constellation 1 277",
        "Satellite Number": 277,
        "Semi-Major Axis(m)": 7083131.272910544,
        "Time(s)": 133
    },
    {
        "Altitude(m)": 710844.3891388866,
        "Argument of Periapsis(deg)": 0.008033032836884352,
        "Eccentricity": 0.0,
        "Inclination(deg)": 45.0,
        "Latitude(deg)": -27.733775882815156,
        "Longitude(deg)": 170.99301757201152,
        "Mean Anomaly(deg)": 220.8612527934865,
        "RAAN(deg)": 59.992417051813675,
        "Satellite Name": "Constellation 1 277",
        "Satellite Number": 277,
        "Semi-Major Axis(m)": 7083131.272910544,
        "Time(s)": 134
    },
    {
        "Altitude(m)": 710858.2234227363,
        "Argument of Periapsis(deg)": 0.008092980843129758,
        "Eccentricity": 0.0,
        "Inclination(deg)": 45.0,
        "Latitude(deg)": -27.77046509218025,
        "Longitude(deg)": 171.04346490421776,
        "Mean Anomaly(deg)": 220.92195393373638,
        "RAAN(deg)": 59.992360462648115,
        "Satellite Name": "Constellation 1 277",
        "Satellite Number": 277,
        "Semi-Major Axis(m)": 7083131.272910544,
        "Time(s)": 135
    },
    {
        "Altitude(m)": 710872.0566011537,
        "Argument of Periapsis(deg)": 0.008152928849375162,
        "Eccentricity": 0.0,
        "Inclination(deg)": 45.0,
        "Latitude(deg)": -27.807132486379313,
        "Longitude(deg)": 171.09394868945196,
        "Mean Anomaly(deg)": 220.9826550739863,
        "RAAN(deg)": 59.99230387348254,
        "Satellite Name": "Constellation 1 277",
        "Satellite Number": 277,
        "Semi-Major Axis(m)": 7083131.272910544,
        "Time(s)": 136
    },
    {
        "Altitude(m)": 710885.888626215,
        "Argument of Periapsis(deg)": 0.008212876855620568,
        "Eccentricity": 0.0,
        "Inclination(deg)": 45.0,
        "Latitude(deg)": -27.843778017909873,
        "Longitude(deg)": 171.14446898728204,
        "Mean Anomaly(deg)": 221.0433562142362,
        "RAAN(deg)": 59.99224728431697,
        "Satellite Name": "Constellation 1 277",
        "Satellite Number": 277,
        "Semi-Major Axis(m)": 7083131.272910544,
        "Time(s)": 137
    },
    {
        "Altitude(m)": 710899.7194499889,
        "Argument of Periapsis(deg)": 0.008272824861865974,
        "Eccentricity": 0.0,
        "Inclination(deg)": 45.0,
        "Latitude(deg)": -27.880401639200933,
        "Longitude(deg)": 171.19502585725246,
        "Mean Anomaly(deg)": 221.10405735448606,
        "RAAN(deg)": 59.99219069515141,
        "Satellite Name": "Constellation 1 277",
        "Satellite Number": 277,
        "Semi-Major Axis(m)": 7083131.272910544,
        "Time(s)": 138
    },
    {
        "Altitude(m)": 710913.5490245316,
        "Argument of Periapsis(deg)": 0.00833277286811138,
        "Eccentricity": 0.0,
        "Inclination(deg)": 45.0,
        "Latitude(deg)": -27.91700330261328,
        "Longitude(deg)": 171.24561935888423,
        "Mean Anomaly(deg)": 221.16475849473602,
        "RAAN(deg)": 59.99213410598584,
        "Satellite Name": "Constellation 1 277",
        "Satellite Number": 277,
        "Semi-Major Axis(m)": 7083131.272910544,
        "Time(s)": 139
    },
    {
        "Altitude(m)": 710927.3773019011,
        "Argument of Periapsis(deg)": 0.008392720874356788,
        "Eccentricity": 0.0,
        "Inclination(deg)": 45.0,
        "Latitude(deg)": -27.953582960438755,
        "Longitude(deg)": 171.2962495516735,
        "Mean Anomaly(deg)": 221.2254596349859,
        "RAAN(deg)": 59.99207751682027,
        "Satellite Name": "Constellation 1 277",
        "Satellite Number": 277,
        "Semi-Major Axis(m)": 7083131.272910544,
        "Time(s)": 140
    },
    {
        "Altitude(m)": 710941.2042341414,
        "Argument of Periapsis(deg)": 0.008452668880602192,
        "Eccentricity": 0.0,
        "Inclination(deg)": 45.0,
        "Latitude(deg)": -27.990140564900546,
        "Longitude(deg)": 171.34691632699506,
        "Mean Anomaly(deg)": 221.28616077523577,
        "RAAN(deg)": 59.99202092765469,
        "Satellite Name": "Constellation 1 277",
        "Satellite Number": 277,
        "Semi-Major Axis(m)": 7083131.272910544,
        "Time(s)": 141
    },
    {
        "Altitude(m)": 710955.0297733002,
        "Argument of Periapsis(deg)": 0.008512616886847598,
        "Eccentricity": 0.0,
        "Inclination(deg)": 45.0,
        "Latitude(deg)": -28.026676068153858,
        "Longitude(deg)": 171.3976200804893,
        "Mean Anomaly(deg)": 221.34686191548568,
        "RAAN(deg)": 59.99196433848912,
        "Satellite Name": "Constellation 1 277",
        "Satellite Number": 277,
        "Semi-Major Axis(m)": 7083131.272910544,
        "Time(s)": 142
    },
    {
        "Altitude(m)": 710968.8538714086,
        "Argument of Periapsis(deg)": 0.008572564893093004,
        "Eccentricity": 0.0,
        "Inclination(deg)": 45.0,
        "Latitude(deg)": -28.06318942228437,
        "Longitude(deg)": 171.44836070347984,
        "Mean Anomaly(deg)": 221.4075630557356,
        "RAAN(deg)": 59.99190774932356,
        "Satellite Name": "Constellation 1 277",
        "Satellite Number": 277,
        "Semi-Major Axis(m)": 7083131.272910544,
        "Time(s)": 143
    },
    {
        "Altitude(m)": 710982.6764804956,
        "Argument of Periapsis(deg)": 0.008632512899338408,
        "Eccentricity": 0.0,
        "Inclination(deg)": 45.0,
        "Latitude(deg)": -28.09968057930905,
        "Longitude(deg)": 171.49913825536095,
        "Mean Anomaly(deg)": 221.46826419598548,
        "RAAN(deg)": 59.99185116015799,
        "Satellite Name": "Constellation 1 277",
        "Satellite Number": 277,
        "Semi-Major Axis(m)": 7083131.272910544,
        "Time(s)": 144
    },
    {
        "Altitude(m)": 710996.4975525881,
        "Argument of Periapsis(deg)": 0.008692460905583814,
        "Eccentricity": 0.0,
        "Inclination(deg)": 45.0,
        "Latitude(deg)": -28.136149491175978,
        "Longitude(deg)": 171.54995279550025,
        "Mean Anomaly(deg)": 221.5289653362354,
        "RAAN(deg)": 59.99179457099242,
        "Satellite Name": "Constellation 1 277",
        "Satellite Number": 277,
        "Semi-Major Axis(m)": 7083131.272910544,
        "Time(s)": 145
    },
    {
        "Altitude(m)": 711010.3170397067,
        "Argument of Periapsis(deg)": 0.00875240891182922,
        "Eccentricity": 0.0,
        "Inclination(deg)": 45.0,
        "Latitude(deg)": -28.172596109764225,
        "Longitude(deg)": 171.600804383238,
        "Mean Anomaly(deg)": 221.58966647648526,
        "RAAN(deg)": 59.991737981826844,
        "Satellite Name": "Constellation 1 277",
        "Satellite Number": 277,
        "Semi-Major Axis(m)": 7083131.272910544,
        "Time(s)": 146
    },
    {
        "Altitude(m)": 711024.1348938644,
        "Argument of Periapsis(deg)": 0.008812356918074627,
        "Eccentricity": 0.0,
        "Inclination(deg)": 45.0,
        "Latitude(deg)": -28.20902038688394,
        "Longitude(deg)": 171.6516930778868,
        "Mean Anomaly(deg)": 221.65036761673517,
        "RAAN(deg)": 59.991681392661285,
        "Satellite Name": "Constellation 1 277",
        "Satellite Number": 277,
        "Semi-Major Axis(m)": 7083131.272910544,
        "Time(s)": 147
    },
    {
        "Altitude(m)": 711037.9510670684,
        "Argument of Periapsis(deg)": 0.008872304924320031,
        "Eccentricity": 0.0,
        "Inclination(deg)": 45.0,
        "Latitude(deg)": -28.24542227427573,
        "Longitude(deg)": 171.7026187706339,
        "Mean Anomaly(deg)": 221.71106875698507,
        "RAAN(deg)": 59.99162480349571,
        "Satellite Name": "Constellation 1 277",
        "Satellite Number": 277,
        "Semi-Major Axis(m)": 7083131.272910544,
        "Time(s)": 148
    },
    {
        "Altitude(m)": 711051.7655113227,
        "Argument of Periapsis(deg)": 0.008932252930565437,
        "Eccentricity": 0.0,
        "Inclination(deg)": 45.0,
        "Latitude(deg)": -28.28180172361195,
        "Longitude(deg)": 171.75358185692895,
        "Mean Anomaly(deg)": 221.771769897235,
        "RAAN(deg)": 59.99156821433014,
        "Satellite Name": "Constellation 1 277",
        "Satellite Number": 277,
        "Semi-Major Axis(m)": 7083131.272910544,
        "Time(s)": 149
    },
    {
        "Altitude(m)": 711065.578178629,
        "Argument of Periapsis(deg)": 0.008992200936810843,
        "Eccentricity": 0.0,
        "Inclination(deg)": 45.0,
        "Latitude(deg)": -28.318158686494712,
        "Longitude(deg)": 171.80458222790094,
        "Mean Anomaly(deg)": 221.83247103748494,
        "RAAN(deg)": 59.99151162516456,
        "Satellite Name": "Constellation 1 277",
        "Satellite Number": 277,
        "Semi-Major Axis(m)": 7083131.272910544,
        "Time(s)": 150
    },
    {
        "Altitude(m)": 711079.3890209822,
        "Argument of Periapsis(deg)": 0.009052148943056249,
        "Eccentricity": 0.0,
        "Inclination(deg)": 45.0,
        "Latitude(deg)": -28.35449311445721,
        "Longitude(deg)": 171.85561994274644,
        "Mean Anomaly(deg)": 221.89317217773473,
        "RAAN(deg)": 59.99145503599901,
        "Satellite Name": "Constellation 1 277",
        "Satellite Number": 277,
        "Semi-Major Axis(m)": 7083131.272910544,
        "Time(s)": 151
    }
]